{"type": "FeatureCollection", "features": [ {"type": "Feature", "properties": {"norad_id": 41774, "name": "SKYSAT-C3", "group": "resource", "lat": 60.65228393324169, "lon": -149.4365035241497, "alt_km": 426.67904321641254, "timestamp": "2025-12-10T04:57:29.263027+00:00", "meta": {"OBJECT_NAME": "SKYSAT-C3", "OBJECT_ID": "2016-058E", "EPOCH": "2025-12-09T08:13:44.896800", "MEAN_MOTION": 15.44211075, "ECCENTRICITY": 0.00016082, "INCLINATION": 96.93, "RA_OF_ASC_NODE": 17.247, "ARG_OF_PERICENTER": 106.2569, "MEAN_ANOMALY": 253.8858, "EPHEMERIS_TYPE": 0, "CLASSIFICATION_TYPE": "U", "NORAD_CAT_ID": 41774, "ELEMENT_SET_NO": 999, "REV_AT_EPOCH": 51673, "BSTAR": 0.00051602261, "MEAN_MOTION_DOT": 0.00023646, "MEAN_MOTION_DDOT": 0}, "tle": {"line1": "1 41774U 16058E   25343.34288075  .00023646  00000+0  51602-3 0  9994", "line2": "2 41774  96.9300  17.2470 0001608 106.2569 253.8858 15.44211075516738"}}, "geometry": {"type": "Point", "coordinates": [-149.4365035241497, 60.65228393324169]}}, {"type": "Feature", "properties": {"norad_id": 41785, "name": "ALSAT 1B", "group": "resource", "lat": -80.88085119480661, "lon": 54.52025731052502, "alt_km": 669.0350024863992, "timestamp": "2025-12-10T04:57:29.263038+00:00", "meta": {"OBJECT_NAME": "ALSAT 1B", "OBJECT_ID": "2016-059C", "EPOCH": "2025-12-09T21:11:19.758048", "MEAN_MOTION": 14.72071188, "ECCENTRICITY": 0.0010639, "INCLINATION": 97.7811, "RA_OF_ASC_NODE": 355.7957, "ARG_OF_PERICENTER": 111.1549, "MEAN_ANOMALY": 249.0797, "EPHEMERIS_TYPE": 0, "CLASSIFICATION_TYPE": "U", "NORAD_CAT_ID": 41785, "ELEMENT_SET_NO": 999, "REV_AT_EPOCH": 49272, "BSTAR": 0.0001459, "MEAN_MOTION_DOT": 8.71e-06, "MEAN_MOTION_DDOT": 0}, "tle": {"line1": "1 41785U 16059C   25343.88286757  .00000871  00000+0  14590-3 0  9991", "line2": "2 41785  97.7811 355.7957 0010639 111.1549 249.0797 14.72071188492723"}}, "geometry": {"type": "Point", "coordinates": [54.52025731052502, -80.88085119480661]}}, {"type": "Feature", "properties": {"norad_id": 41787, "name": "PATHFINDER 1", "group": "resource", "lat": 35.87435480647676, "lon": -18.601720955188544, "alt_km": 654.2406484456669, "timestamp": "2025-12-10T04:57:29.263048+00:00", "meta": {"OBJECT_NAME": "PATHFINDER 1", "OBJECT_ID": "2016-059E", "EPOCH": "2025-12-09T12:25:38.745120", "MEAN_MOTION": 14.67312716, "ECCENTRICITY": 0.0030058, "INCLINATION": 97.8139, "RA_OF_ASC_NODE": 346.4409, "ARG_OF_PERICENTER": 90.9607, "MEAN_ANOMALY": 269.5043, "EPHEMERIS_TYPE": 0, "CLASSIFICATION_TYPE": "U", "NORAD_CAT_ID": 41787, "ELEMENT_SET_NO": 999, "REV_AT_EPOCH": 49189, "BSTAR": 0.00025681, "MEAN_MOTION_DOT": 1.412e-05, "MEAN_MOTION_DDOT": 0}, "tle": {"line1": "1 41787U 16059E   25343.51780955  .00001412  00000+0  25681-3 0  9997", "line2": "2 41787  97.8139 346.4409 0030058  90.9607 269.5043 14.67312716491891"}}, "geometry": {"type": "Point", "coordinates": [-18.601720955188544, 35.87435480647676]}}, {"type": "Feature", "properties": {"norad_id": 41790, "name": "SCATSAT 1", "group": "resource", "lat": -74.09336551865937, "lon": 71.02086530267789, "alt_km": 673.2597825575722, "timestamp": "2025-12-10T04:57:29.263058+00:00", "meta": {"OBJECT_NAME": "SCATSAT 1", "OBJECT_ID": "2016-059H", "EPOCH": "2025-12-09T14:41:31.589088", "MEAN_MOTION": 14.7892095, "ECCENTRICITY": 0.0056121, "INCLINATION": 98.1466, "RA_OF_ASC_NODE": 40.2434, "ARG_OF_PERICENTER": 137.8727, "MEAN_ANOMALY": 222.6818, "EPHEMERIS_TYPE": 0, "CLASSIFICATION_TYPE": "U", "NORAD_CAT_ID": 41790, "ELEMENT_SET_NO": 999, "REV_AT_EPOCH": 7356, "BSTAR": 0.00038427, "MEAN_MOTION_DOT": 2.853e-05, "MEAN_MOTION_DDOT": 0}, "tle": {"line1": "1 41790U 16059H   25343.61217117  .00002853  00000+0  38427-3 0  9999", "line2": "2 41790  98.1466  40.2434 0056121 137.8727 222.6818 14.78920950 73569"}}, "geometry": {"type": "Point", "coordinates": [71.02086530267789, -74.09336551865937]}}, {"type": "Feature", "properties": {"norad_id": 41875, "name": "GOKTURK 1A", "group": "resource", "lat": 24.529999868429485, "lon": 60.35155035547568, "alt_km": 683.3769224881216, "timestamp": "2025-12-10T04:57:29.263069+00:00", "meta": {"OBJECT_NAME": "GOKTURK 1A", "OBJECT_ID": "2016-073A", "EPOCH": "2025-12-09T20:02:34.929600", "MEAN_MOTION": 14.62774426, "ECCENTRICITY": 0.0001242, "INCLINATION": 98.1427, "RA_OF_ASC_NODE": 236.2388, "ARG_OF_PERICENTER": 79.3627, "MEAN_ANOMALY": 280.7715, "EPHEMERIS_TYPE": 0, "CLASSIFICATION_TYPE": "U", "NORAD_CAT_ID": 41875, "ELEMENT_SET_NO": 999, "REV_AT_EPOCH": 48114, "BSTAR": 0.00017866, "MEAN_MOTION_DOT": 8.64e-06, "MEAN_MOTION_DDOT": 0}, "tle": {"line1": "1 41875U 16073A   25343.83512650  .00000864  00000+0  17866-3 0  9997", "line2": "2 41875  98.1427 236.2388 0001242  79.3627 280.7715 14.62774426481144"}}, "geometry": {"type": "Point", "coordinates": [60.35155035547568, 24.529999868429485]}}, {"type": "Feature", "properties": {"norad_id": 41877, "name": "RESOURCESAT-2A", "group": "resource", "lat": -38.40264341170911, "lon": -132.95624310824323, "alt_km": 825.8237980678623, "timestamp": "2025-12-10T04:57:29.263079+00:00", "meta": {"OBJECT_NAME": "RESOURCESAT-2A", "OBJECT_ID": "2016-074A", "EPOCH": "2025-12-09T19:29:08.672352", "MEAN_MOTION": 14.21597999, "ECCENTRICITY": 0.0001141, "INCLINATION": 98.7755, "RA_OF_ASC_NODE": 53.6845, "ARG_OF_PERICENTER": 271.311, "MEAN_ANOMALY": 88.7937, "EPHEMERIS_TYPE": 0, "CLASSIFICATION_TYPE": "U", "NORAD_CAT_ID": 41877, "ELEMENT_SET_NO": 999, "REV_AT_EPOCH": 46739, "BSTAR": 0.00017529, "MEAN_MOTION_DOT": 3.4e-06, "MEAN_MOTION_DDOT": 0}, "tle": {"line1": "1 41877U 16074A   25343.81190593  .00000340  00000+0  17529-3 0  9991", "line2": "2 41877  98.7755  53.6845 0001141 271.3110  88.7937 14.21597999467390"}}, "geometry": {"type": "Point", "coordinates": [-132.95624310824323, -38.40264341170911]}}, {"type": "Feature", "properties": {"norad_id": 41948, "name": "CARTOSAT-2D", "group": "resource", "lat": 55.48135519040821, "lon": 30.790810317494667, "alt_km": 504.15758835497127, "timestamp": "2025-12-10T04:57:29.263089+00:00", "meta": {"OBJECT_NAME": "CARTOSAT-2D", "OBJECT_ID": "2017-008A", "EPOCH": "2025-12-09T20:48:27.288000", "MEAN_MOTION": 15.192069, "ECCENTRICITY": 0.0004326, "INCLINATION": 97.4386, "RA_OF_ASC_NODE": 41.4074, "ARG_OF_PERICENTER": 170.6663, "MEAN_ANOMALY": 189.4652, "EPHEMERIS_TYPE": 0, "CLASSIFICATION_TYPE": "U", "NORAD_CAT_ID": 41948, "ELEMENT_SET_NO": 999, "REV_AT_EPOCH": 48883, "BSTAR": 0.00022814, "MEAN_MOTION_DOT": 4.735e-05, "MEAN_MOTION_DDOT": 0}, "tle": {"line1": "1 41948U 17008A   25343.86698250  .00004735  00000+0  22814-3 0  9991", "line2": "2 41948  97.4386  41.4074 0004326 170.6663 189.4652 15.19206900488838"}}, "geometry": {"type": "Point", "coordinates": [30.790810317494667, 55.48135519040821]}}, {"type": "Feature", "properties": {"norad_id": 42063, "name": "SENTINEL-2B", "group": "resource", "lat": 73.9981236799515, "lon": -91.58195103217918, "alt_km": 781.1230157357304, "timestamp": "2025-12-10T04:57:29.263099+00:00", "meta": {"OBJECT_NAME": "SENTINEL-2B", "OBJECT_ID": "2017-013A", "EPOCH": "2025-12-09T20:05:03.981696", "MEAN_MOTION": 14.3081374, "ECCENTRICITY": 0.0001135, "INCLINATION": 98.5715, "RA_OF_ASC_NODE": 56.3233, "ARG_OF_PERICENTER": 92.7606, "MEAN_ANOMALY": 267.3707, "EPHEMERIS_TYPE": 0, "CLASSIFICATION_TYPE": "U", "NORAD_CAT_ID": 42063, "ELEMENT_SET_NO": 999, "REV_AT_EPOCH": 45756, "BSTAR": 6.7186e-05, "MEAN_MOTION_DOT": 1.32e-06, "MEAN_MOTION_DDOT": 0}, "tle": {"line1": "1 42063U 17013A   25343.83685164  .00000132  00000+0  67186-4 0  9992", "line2": "2 42063  98.5715  56.3233 0001135  92.7606 267.3707 14.30813740457564"}}, "geometry": {"type": "Point", "coordinates": [-91.58195103217918, 73.9981236799515]}}, {"type": "Feature", "properties": {"norad_id": 42767, "name": "CARTOSAT-2E", "group": "resource", "lat": -32.62223101901205, "lon": 46.6334760325761, "alt_km": 513.8548676987157, "timestamp": "2025-12-10T04:57:29.263109+00:00", "meta": {"OBJECT_NAME": "CARTOSAT-2E", "OBJECT_ID": "2017-036C", "EPOCH": "2025-12-09T19:37:06.796992", "MEAN_MOTION": 15.19272658, "ECCENTRICITY": 0.0002298, "INCLINATION": 97.4555, "RA_OF_ASC_NODE": 41.4412, "ARG_OF_PERICENTER": 251.7991, "MEAN_ANOMALY": 108.2994, "EPHEMERIS_TYPE": 0, "CLASSIFICATION_TYPE": "U", "NORAD_CAT_ID": 42767, "ELEMENT_SET_NO": 999, "REV_AT_EPOCH": 46939, "BSTAR": 0.00026591, "MEAN_MOTION_DOT": 5.541e-05, "MEAN_MOTION_DDOT": 0}, "tle": {"line1": "1 42767U 17036C   25343.81743978  .00005541  00000+0  26591-3 0  9997", "line2": "2 42767  97.4555  41.4412 0002298 251.7991 108.2994 15.19272658469394"}}, "geometry": {"type": "Point", "coordinates": [46.6334760325761, -32.62223101901205]}}, {"type": "Feature", "properties": {"norad_id": 42920, "name": "FORMOSAT-5", "group": "resource", "lat": -75.66784825751891, "lon": 93.1559339104673, "alt_km": 723.1275072481003, "timestamp": "2025-12-10T04:57:29.263120+00:00", "meta": {"OBJECT_NAME": "FORMOSAT-5", "OBJECT_ID": "2017-049A", "EPOCH": "2025-12-09T19:23:15.386208", "MEAN_MOTION": 14.51002946, "ECCENTRICITY": 0.001, "INCLINATION": 98.2455, "RA_OF_ASC_NODE": 58.185, "ARG_OF_PERICENTER": 305.5087, "MEAN_ANOMALY": 54.5174, "EPHEMERIS_TYPE": 0, "CLASSIFICATION_TYPE": "U", "NORAD_CAT_ID": 42920, "ELEMENT_SET_NO": 999, "REV_AT_EPOCH": 43921, "BSTAR": 0.00012828, "MEAN_MOTION_DOT": 4.64e-06, "MEAN_MOTION_DDOT": 0}, "tle": {"line1": "1 42920U 17049A   25343.80781697  .00000464  00000+0  12828-3 0  9998", "line2": "2 42920  98.2455  58.1850 0010000 305.5087  54.5174 14.51002946439215"}}, "geometry": {"type": "Point", "coordinates": [93.1559339104673, -75.66784825751891]}}]}